<?xml version="1.0" encoding="UTF-8"?>
<gpx version="1.1" creator="StravaKalcer">
  <trk><name>Kalcer Realistic Loop</name><trkseg>
    <trkpt lat="-7.249550" lon="112.750300">
      <ele>50.1</ele>
      <time>2026-10-08T06:00:00Z</time>
    </trkpt>
    <trkpt lat="-7.249100" lon="112.750600">
      <ele>50.0</ele>
      <time>2026-10-08T06:00:01Z</time>
    </trkpt>
    <trkpt lat="-7.248650" lon="112.750900">
      <ele>50.1</ele>
      <time>2026-10-08T06:00:02Z</time>
    </trkpt>
    <trkpt lat="-7.248200" lon="112.751200">
      <ele>50.0</ele>
      <time>2026-10-08T06:00:03Z</time>
    </trkpt>
    <trkpt lat="-7.247750" lon="112.751500">
      <ele>50.1</ele>
      <time>2026-10-08T06:00:04Z</time>
    </trkpt>
    <trkpt lat="-7.247300" lon="112.751800">
      <ele>50.0</ele>
      <time>2026-10-08T06:00:05Z</time>
    </trkpt>
    <trkpt lat="-7.246850" lon="112.752100">
      <ele>50.1</ele>
      <time>2026-10-08T06:00:06Z</time>
    </trkpt>
    <trkpt lat="-7.246400" lon="112.752400">
      <ele>50.0</ele>
      <time>2026-10-08T06:00:07Z</time>
    </trkpt>
    <trkpt lat="-7.245950" lon="112.752700">
      <ele>50.1</ele>
      <time>2026-10-08T06:00:08Z</time>
    </trkpt>
    <trkpt lat="-7.245500" lon="112.753000">
      <ele>50.0</ele>
      <time>2026-10-08T06:00:09Z</time>
    </trkpt>
    <trkpt lat="-7.245050" lon="112.753300">
      <ele>50.1</ele>
      <time>2026-10-08T06:00:10Z</time>
    </trkpt>
    <trkpt lat="-7.244600" lon="112.753600">
      <ele>50.0</ele>
      <time>2026-10-08T06:00:11Z</time>
    </trkpt>
    <trkpt lat="-7.244150" lon="112.753900">
      <ele>50.1</ele>
      <time>2026-10-08T06:00:12Z</time>
    </trkpt>
    <trkpt lat="-7.243700" lon="112.754200">
      <ele>50.0</ele>
      <time>2026-10-08T06:00:13Z</time>
    </trkpt>
    <trkpt lat="-7.243250" lon="112.754500">
      <ele>50.1</ele>
      <time>2026-10-08T06:00:14Z</time>
    </trkpt>
    <trkpt lat="-7.242800" lon="112.754800">
      <ele>50.0</ele>
      <time>2026-10-08T06:00:15Z</time>
    </trkpt>
    <trkpt lat="-7.242350" lon="112.755100">
      <ele>50.1</ele>
      <time>2026-10-08T06:00:16Z</time>
    </trkpt>
    <trkpt lat="-7.241900" lon="112.755400">
      <ele>50.0</ele>
      <time>2026-10-08T06:00:17Z</time>
    </trkpt>
    <trkpt lat="-7.241450" lon="112.755700">
      <ele>50.1</ele>
      <time>2026-10-08T06:00:18Z</time>
    </trkpt>
    <trkpt lat="-7.241000" lon="112.756000">
      <ele>50.0</ele>
      <time>2026-10-08T06:00:19Z</time>
    </trkpt>
    <trkpt lat="-7.240550" lon="112.756300">
      <ele>50.1</ele>
      <time>2026-10-08T06:00:20Z</time>
    </trkpt>
    <trkpt lat="-7.240100" lon="112.756600">
      <ele>50.0</ele>
      <time>2026-10-08T06:00:21Z</time>
    </trkpt>
    <trkpt lat="-7.239650" lon="112.756900">
      <ele>50.1</ele>
      <time>2026-10-08T06:00:22Z</time>
    </trkpt>
    <trkpt lat="-7.239200" lon="112.757200">
      <ele>50.0</ele>
      <time>2026-10-08T06:00:23Z</time>
    </trkpt>
    <trkpt lat="-7.238750" lon="112.757500">
      <ele>50.1</ele>
      <time>2026-10-08T06:00:24Z</time>
    </trkpt>
    <trkpt lat="-7.238300" lon="112.757800">
      <ele>50.0</ele>
      <time>2026-10-08T06:00:25Z</time>
    </trkpt>
    <trkpt lat="-7.237850" lon="112.758100">
      <ele>50.1</ele>
      <time>2026-10-08T06:00:26Z</time>
    </trkpt>
    <trkpt lat="-7.237400" lon="112.758400">
      <ele>50.0</ele>
      <time>2026-10-08T06:00:27Z</time>
    </trkpt>
    <trkpt lat="-7.236950" lon="112.758700">
      <ele>50.1</ele>
      <time>2026-10-08T06:00:28Z</time>
    </trkpt>
    <trkpt lat="-7.236500" lon="112.759000">
      <ele>50.0</ele>
      <time>2026-10-08T06:00:29Z</time>
    </trkpt>
    <trkpt lat="-7.236050" lon="112.759300">
      <ele>54.2</ele>
      <time>2026-10-08T06:00:30Z</time>
    </trkpt>
    <trkpt lat="-7.235600" lon="112.759600">
      <ele>58.4</ele>
      <time>2026-10-08T06:00:31Z</time>
    </trkpt>
    <trkpt lat="-7.235150" lon="112.759900">
      <ele>62.6</ele>
      <time>2026-10-08T06:00:32Z</time>
    </trkpt>
    <trkpt lat="-7.234700" lon="112.760200">
      <ele>66.8</ele>
      <time>2026-10-08T06:00:33Z</time>
    </trkpt>
    <trkpt lat="-7.234250" lon="112.760500">
      <ele>71.0</ele>
      <time>2026-10-08T06:00:34Z</time>
    </trkpt>
    <trkpt lat="-7.233800" lon="112.760800">
      <ele>75.2</ele>
      <time>2026-10-08T06:00:35Z</time>
    </trkpt>
    <trkpt lat="-7.233350" lon="112.761100">
      <ele>79.4</ele>
      <time>2026-10-08T06:00:36Z</time>
    </trkpt>
    <trkpt lat="-7.232900" lon="112.761400">
      <ele>83.6</ele>
      <time>2026-10-08T06:00:37Z</time>
    </trkpt>
    <trkpt lat="-7.232450" lon="112.761700">
      <ele>87.8</ele>
      <time>2026-10-08T06:00:38Z</time>
    </trkpt>
    <trkpt lat="-7.232000" lon="112.762000">
      <ele>92.0</ele>
      <time>2026-10-08T06:00:39Z</time>
    </trkpt>
    <trkpt lat="-7.231550" lon="112.762300">
      <ele>96.2</ele>
      <time>2026-10-08T06:00:40Z</time>
    </trkpt>
    <trkpt lat="-7.231100" lon="112.762600">
      <ele>100.4</ele>
      <time>2026-10-08T06:00:41Z</time>
    </trkpt>
    <trkpt lat="-7.230650" lon="112.762900">
      <ele>104.6</ele>
      <time>2026-10-08T06:00:42Z</time>
    </trkpt>
    <trkpt lat="-7.230200" lon="112.763200">
      <ele>108.8</ele>
      <time>2026-10-08T06:00:43Z</time>
    </trkpt>
    <trkpt lat="-7.229750" lon="112.763500">
      <ele>113.0</ele>
      <time>2026-10-08T06:00:44Z</time>
    </trkpt>
    <trkpt lat="-7.229300" lon="112.763800">
      <ele>117.2</ele>
      <time>2026-10-08T06:00:45Z</time>
    </trkpt>
    <trkpt lat="-7.228850" lon="112.764100">
      <ele>121.4</ele>
      <time>2026-10-08T06:00:46Z</time>
    </trkpt>
    <trkpt lat="-7.228400" lon="112.764400">
      <ele>125.6</ele>
      <time>2026-10-08T06:00:47Z</time>
    </trkpt>
    <trkpt lat="-7.227950" lon="112.764700">
      <ele>129.8</ele>
      <time>2026-10-08T06:00:48Z</time>
    </trkpt>
    <trkpt lat="-7.227500" lon="112.765000">
      <ele>134.0</ele>
      <time>2026-10-08T06:00:49Z</time>
    </trkpt>
    <trkpt lat="-7.227050" lon="112.765300">
      <ele>138.2</ele>
      <time>2026-10-08T06:00:50Z</time>
    </trkpt>
    <trkpt lat="-7.226600" lon="112.765600">
      <ele>142.4</ele>
      <time>2026-10-08T06:00:51Z</time>
    </trkpt>
    <trkpt lat="-7.226150" lon="112.765900">
      <ele>146.6</ele>
      <time>2026-10-08T06:00:52Z</time>
    </trkpt>
    <trkpt lat="-7.225700" lon="112.766200">
      <ele>150.8</ele>
      <time>2026-10-08T06:00:53Z</time>
    </trkpt>
    <trkpt lat="-7.225250" lon="112.766500">
      <ele>155.0</ele>
      <time>2026-10-08T06:00:54Z</time>
    </trkpt>
    <trkpt lat="-7.224800" lon="112.766800">
      <ele>159.2</ele>
      <time>2026-10-08T06:00:55Z</time>
    </trkpt>
    <trkpt lat="-7.224350" lon="112.767100">
      <ele>163.4</ele>
      <time>2026-10-08T06:00:56Z</time>
    </trkpt>
    <trkpt lat="-7.223900" lon="112.767400">
      <ele>167.6</ele>
      <time>2026-10-08T06:00:57Z</time>
    </trkpt>
    <trkpt lat="-7.223450" lon="112.767700">
      <ele>171.8</ele>
      <time>2026-10-08T06:00:58Z</time>
    </trkpt>
    <trkpt lat="-7.223000" lon="112.768000">
      <ele>176.0</ele>
      <time>2026-10-08T06:00:59Z</time>
    </trkpt>
    <trkpt lat="-7.222550" lon="112.768300">
      <ele>180.2</ele>
      <time>2026-10-08T06:00:00Z</time>
    </trkpt>
    <trkpt lat="-7.222100" lon="112.768600">
      <ele>184.4</ele>
      <time>2026-10-08T06:00:01Z</time>
    </trkpt>
    <trkpt lat="-7.221650" lon="112.768900">
      <ele>188.6</ele>
      <time>2026-10-08T06:00:02Z</time>
    </trkpt>
    <trkpt lat="-7.221200" lon="112.769200">
      <ele>192.8</ele>
      <time>2026-10-08T06:00:03Z</time>
    </trkpt>
    <trkpt lat="-7.220750" lon="112.769500">
      <ele>197.0</ele>
      <time>2026-10-08T06:00:04Z</time>
    </trkpt>
    <trkpt lat="-7.220300" lon="112.769800">
      <ele>201.2</ele>
      <time>2026-10-08T06:00:05Z</time>
    </trkpt>
    <trkpt lat="-7.219850" lon="112.770100">
      <ele>205.4</ele>
      <time>2026-10-08T06:00:06Z</time>
    </trkpt>
    <trkpt lat="-7.219400" lon="112.770400">
      <ele>209.6</ele>
      <time>2026-10-08T06:00:07Z</time>
    </trkpt>
    <trkpt lat="-7.218950" lon="112.770700">
      <ele>213.8</ele>
      <time>2026-10-08T06:00:08Z</time>
    </trkpt>
    <trkpt lat="-7.218500" lon="112.771000">
      <ele>218.0</ele>
      <time>2026-10-08T06:00:09Z</time>
    </trkpt>
    <trkpt lat="-7.218050" lon="112.771300">
      <ele>222.2</ele>
      <time>2026-10-08T06:00:10Z</time>
    </trkpt>
    <trkpt lat="-7.217600" lon="112.771600">
      <ele>217.4</ele>
      <time>2026-10-08T06:00:11Z</time>
    </trkpt>
    <trkpt lat="-7.217150" lon="112.771900">
      <ele>212.6</ele>
      <time>2026-10-08T06:00:12Z</time>
    </trkpt>
    <trkpt lat="-7.216700" lon="112.772200">
      <ele>207.8</ele>
      <time>2026-10-08T06:00:13Z</time>
    </trkpt>
    <trkpt lat="-7.216250" lon="112.772500">
      <ele>203.0</ele>
      <time>2026-10-08T06:00:14Z</time>
    </trkpt>
    <trkpt lat="-7.215800" lon="112.772800">
      <ele>198.2</ele>
      <time>2026-10-08T06:00:15Z</time>
    </trkpt>
    <trkpt lat="-7.215350" lon="112.773100">
      <ele>193.4</ele>
      <time>2026-10-08T06:00:16Z</time>
    </trkpt>
    <trkpt lat="-7.214900" lon="112.773400">
      <ele>188.6</ele>
      <time>2026-10-08T06:00:17Z</time>
    </trkpt>
    <trkpt lat="-7.214450" lon="112.773700">
      <ele>183.8</ele>
      <time>2026-10-08T06:00:18Z</time>
    </trkpt>
    <trkpt lat="-7.214000" lon="112.774000">
      <ele>179.0</ele>
      <time>2026-10-08T06:00:19Z</time>
    </trkpt>
    <trkpt lat="-7.213550" lon="112.774300">
      <ele>174.2</ele>
      <time>2026-10-08T06:00:20Z</time>
    </trkpt>
    <trkpt lat="-7.213100" lon="112.774600">
      <ele>169.4</ele>
      <time>2026-10-08T06:00:21Z</time>
    </trkpt>
    <trkpt lat="-7.212650" lon="112.774900">
      <ele>164.6</ele>
      <time>2026-10-08T06:00:22Z</time>
    </trkpt>
    <trkpt lat="-7.212200" lon="112.775200">
      <ele>159.8</ele>
      <time>2026-10-08T06:00:23Z</time>
    </trkpt>
    <trkpt lat="-7.211750" lon="112.775500">
      <ele>155.0</ele>
      <time>2026-10-08T06:00:24Z</time>
    </trkpt>
    <trkpt lat="-7.211300" lon="112.775800">
      <ele>150.2</ele>
      <time>2026-10-08T06:00:25Z</time>
    </trkpt>
    <trkpt lat="-7.210850" lon="112.776100">
      <ele>145.4</ele>
      <time>2026-10-08T06:00:26Z</time>
    </trkpt>
    <trkpt lat="-7.210400" lon="112.776400">
      <ele>140.6</ele>
      <time>2026-10-08T06:00:27Z</time>
    </trkpt>
    <trkpt lat="-7.209950" lon="112.776700">
      <ele>135.8</ele>
      <time>2026-10-08T06:00:28Z</time>
    </trkpt>
    <trkpt lat="-7.209500" lon="112.777000">
      <ele>131.0</ele>
      <time>2026-10-08T06:00:29Z</time>
    </trkpt>
    <trkpt lat="-7.209050" lon="112.777300">
      <ele>126.2</ele>
      <time>2026-10-08T06:00:30Z</time>
    </trkpt>
    <trkpt lat="-7.208600" lon="112.777600">
      <ele>121.4</ele>
      <time>2026-10-08T06:00:31Z</time>
    </trkpt>
    <trkpt lat="-7.208150" lon="112.777900">
      <ele>116.6</ele>
      <time>2026-10-08T06:00:32Z</time>
    </trkpt>
    <trkpt lat="-7.207700" lon="112.778200">
      <ele>111.8</ele>
      <time>2026-10-08T06:00:33Z</time>
    </trkpt>
    <trkpt lat="-7.207250" lon="112.778500">
      <ele>107.0</ele>
      <time>2026-10-08T06:00:34Z</time>
    </trkpt>
    <trkpt lat="-7.206800" lon="112.778800">
      <ele>102.2</ele>
      <time>2026-10-08T06:00:35Z</time>
    </trkpt>
    <trkpt lat="-7.206350" lon="112.779100">
      <ele>97.4</ele>
      <time>2026-10-08T06:00:36Z</time>
    </trkpt>
    <trkpt lat="-7.205900" lon="112.779400">
      <ele>92.6</ele>
      <time>2026-10-08T06:00:37Z</time>
    </trkpt>
    <trkpt lat="-7.205450" lon="112.779700">
      <ele>87.8</ele>
      <time>2026-10-08T06:00:38Z</time>
    </trkpt>
    <trkpt lat="-7.205000" lon="112.780000">
      <ele>83.0</ele>
      <time>2026-10-08T06:00:39Z</time>
    </trkpt>
    <trkpt lat="-7.204550" lon="112.780300">
      <ele>78.2</ele>
      <time>2026-10-08T06:00:40Z</time>
    </trkpt>
    <trkpt lat="-7.204100" lon="112.780600">
      <ele>78.1</ele>
      <time>2026-10-08T06:00:41Z</time>
    </trkpt>
    <trkpt lat="-7.203650" lon="112.780900">
      <ele>78.2</ele>
      <time>2026-10-08T06:00:42Z</time>
    </trkpt>
    <trkpt lat="-7.203200" lon="112.781200">
      <ele>78.1</ele>
      <time>2026-10-08T06:00:43Z</time>
    </trkpt>
    <trkpt lat="-7.202750" lon="112.781500">
      <ele>78.2</ele>
      <time>2026-10-08T06:00:44Z</time>
    </trkpt>
    <trkpt lat="-7.202300" lon="112.781800">
      <ele>78.1</ele>
      <time>2026-10-08T06:00:45Z</time>
    </trkpt>
    <trkpt lat="-7.201850" lon="112.782100">
      <ele>78.2</ele>
      <time>2026-10-08T06:00:46Z</time>
    </trkpt>
    <trkpt lat="-7.201400" lon="112.782400">
      <ele>78.1</ele>
      <time>2026-10-08T06:00:47Z</time>
    </trkpt>
    <trkpt lat="-7.200950" lon="112.782700">
      <ele>78.2</ele>
      <time>2026-10-08T06:00:48Z</time>
    </trkpt>
    <trkpt lat="-7.200500" lon="112.783000">
      <ele>78.1</ele>
      <time>2026-10-08T06:00:49Z</time>
    </trkpt>
    <trkpt lat="-7.200050" lon="112.783300">
      <ele>78.2</ele>
      <time>2026-10-08T06:00:50Z</time>
    </trkpt>
    <trkpt lat="-7.199600" lon="112.783600">
      <ele>78.1</ele>
      <time>2026-10-08T06:00:51Z</time>
    </trkpt>
    <trkpt lat="-7.199150" lon="112.783900">
      <ele>78.2</ele>
      <time>2026-10-08T06:00:52Z</time>
    </trkpt>
    <trkpt lat="-7.198700" lon="112.784200">
      <ele>78.1</ele>
      <time>2026-10-08T06:00:53Z</time>
    </trkpt>
    <trkpt lat="-7.198250" lon="112.784500">
      <ele>78.2</ele>
      <time>2026-10-08T06:00:54Z</time>
    </trkpt>
    <trkpt lat="-7.197800" lon="112.784800">
      <ele>78.1</ele>
      <time>2026-10-08T06:00:55Z</time>
    </trkpt>
    <trkpt lat="-7.197350" lon="112.785100">
      <ele>78.2</ele>
      <time>2026-10-08T06:00:56Z</time>
    </trkpt>
    <trkpt lat="-7.196900" lon="112.785400">
      <ele>78.1</ele>
      <time>2026-10-08T06:00:57Z</time>
    </trkpt>
    <trkpt lat="-7.196450" lon="112.785700">
      <ele>78.2</ele>
      <time>2026-10-08T06:00:58Z</time>
    </trkpt>
    <trkpt lat="-7.196000" lon="112.786000">
      <ele>78.1</ele>
      <time>2026-10-08T06:00:59Z</time>
    </trkpt>
    <trkpt lat="-7.195550" lon="112.786300">
      <ele>78.2</ele>
      <time>2026-10-08T06:00:00Z</time>
    </trkpt>
    <trkpt lat="-7.195100" lon="112.786600">
      <ele>78.1</ele>
      <time>2026-10-08T06:00:01Z</time>
    </trkpt>
    <trkpt lat="-7.194650" lon="112.786900">
      <ele>78.2</ele>
      <time>2026-10-08T06:00:02Z</time>
    </trkpt>
    <trkpt lat="-7.194200" lon="112.787200">
      <ele>78.1</ele>
      <time>2026-10-08T06:00:03Z</time>
    </trkpt>
    <trkpt lat="-7.193750" lon="112.787500">
      <ele>78.2</ele>
      <time>2026-10-08T06:00:04Z</time>
    </trkpt>
    <trkpt lat="-7.193300" lon="112.787800">
      <ele>78.1</ele>
      <time>2026-10-08T06:00:05Z</time>
    </trkpt>
    <trkpt lat="-7.192850" lon="112.788100">
      <ele>78.2</ele>
      <time>2026-10-08T06:00:06Z</time>
    </trkpt>
    <trkpt lat="-7.192400" lon="112.788400">
      <ele>78.1</ele>
      <time>2026-10-08T06:00:07Z</time>
    </trkpt>
    <trkpt lat="-7.191950" lon="112.788700">
      <ele>78.2</ele>
      <time>2026-10-08T06:00:08Z</time>
    </trkpt>
    <trkpt lat="-7.191500" lon="112.789000">
      <ele>78.1</ele>
      <time>2026-10-08T06:00:09Z</time>
    </trkpt>
    <trkpt lat="-7.191050" lon="112.789300">
      <ele>78.2</ele>
      <time>2026-10-08T06:00:10Z</time>
    </trkpt>
    <trkpt lat="-7.190600" lon="112.789600">
      <ele>78.1</ele>
      <time>2026-10-08T06:00:11Z</time>
    </trkpt>
    <trkpt lat="-7.190150" lon="112.789900">
      <ele>78.2</ele>
      <time>2026-10-08T06:00:12Z</time>
    </trkpt>
    <trkpt lat="-7.189700" lon="112.790200">
      <ele>78.1</ele>
      <time>2026-10-08T06:00:13Z</time>
    </trkpt>
    <trkpt lat="-7.189250" lon="112.790500">
      <ele>78.2</ele>
      <time>2026-10-08T06:00:14Z</time>
    </trkpt>
    <trkpt lat="-7.188800" lon="112.790800">
      <ele>78.1</ele>
      <time>2026-10-08T06:00:15Z</time>
    </trkpt>
    <trkpt lat="-7.188350" lon="112.791100">
      <ele>78.2</ele>
      <time>2026-10-08T06:00:16Z</time>
    </trkpt>
    <trkpt lat="-7.187900" lon="112.791400">
      <ele>78.1</ele>
      <time>2026-10-08T06:00:17Z</time>
    </trkpt>
    <trkpt lat="-7.187450" lon="112.791700">
      <ele>78.2</ele>
      <time>2026-10-08T06:00:18Z</time>
    </trkpt>
    <trkpt lat="-7.187000" lon="112.792000">
      <ele>78.1</ele>
      <time>2026-10-08T06:00:19Z</time>
    </trkpt>
    <trkpt lat="-7.186550" lon="112.792300">
      <ele>78.2</ele>
      <time>2026-10-08T06:00:20Z</time>
    </trkpt>
    <trkpt lat="-7.186100" lon="112.792600">
      <ele>78.1</ele>
      <time>2026-10-08T06:00:21Z</time>
    </trkpt>
    <trkpt lat="-7.185650" lon="112.792900">
      <ele>78.2</ele>
      <time>2026-10-08T06:00:22Z</time>
    </trkpt>
    <trkpt lat="-7.185200" lon="112.793200">
      <ele>78.1</ele>
      <time>2026-10-08T06:00:23Z</time>
    </trkpt>
    <trkpt lat="-7.184750" lon="112.793500">
      <ele>78.2</ele>
      <time>2026-10-08T06:00:24Z</time>
    </trkpt>
    <trkpt lat="-7.184300" lon="112.793800">
      <ele>78.1</ele>
      <time>2026-10-08T06:00:25Z</time>
    </trkpt>
    <trkpt lat="-7.183850" lon="112.794100">
      <ele>78.2</ele>
      <time>2026-10-08T06:00:26Z</time>
    </trkpt>
    <trkpt lat="-7.183400" lon="112.794400">
      <ele>78.1</ele>
      <time>2026-10-08T06:00:27Z</time>
    </trkpt>
    <trkpt lat="-7.182950" lon="112.794700">
      <ele>78.2</ele>
      <time>2026-10-08T06:00:28Z</time>
    </trkpt>
    <trkpt lat="-7.182500" lon="112.795000">
      <ele>78.1</ele>
      <time>2026-10-08T06:00:29Z</time>
    </trkpt>
  </trkseg></trk>
</gpx>
